{
  "type": "FeatureCollection",
  "features": [
    {
      "type": "Feature",
      "properties": {
        "norad_id": 30665,
        "name": "FENGYUN 1C DEB",
        "group": "fengyun-1c-debris",
        "lat": -17.65179010869401,
        "lon": 150.4781695930515,
        "alt_km": 816.8268350060289,
        "timestamp": "2025-12-27T10:28:59.072399+00:00",
        "meta_object_name": "FENGYUN 1C DEB",
        "meta_object_id": "1999-025APX",
        "meta_epoch": "2025-12-26T21:55:08.007168",
        "meta_mean_motion": 14.12417271,
        "meta_eccentricity": 0.0067823,
        "meta_inclination": 99.2092,
        "meta_ra_of_asc_node": 332.8996,
        "meta_arg_of_pericenter": 161.9807,
        "meta_mean_anomaly": 254.9089,
        "meta_ephemeris_type": 0,
        "meta_classification_type": "U",
        "meta_norad_cat_id": 30665,
        "meta_element_set_no": 999,
        "meta_rev_at_epoch": 96170,
        "meta_bstar": 0.0015968,
        "meta_mean_motion_dot": 2.965e-05,
        "meta_mean_motion_ddot": 0,
        "tle_line1": "1 30665U 99025APX 25360.91328712  .00002965  00000+0  15968-2 0  9996",
        "tle_line2": "2 30665  99.2092 332.8996 0067823 161.9807 254.9089 14.12417271961701"
      },
      "geometry": {
        "type": "Point",
        "coordinates": [
          150.4781695930515,
          -17.65179010869401
        ]
      }
    },
    {
      "type": "Feature",
      "properties": {
        "norad_id": 30666,
        "name": "FENGYUN 1C DEB",
        "group": "fengyun-1c-debris",
        "lat": -28.78262929708233,
        "lon": 159.6962088767655,
        "alt_km": 902.1950975282471,
        "timestamp": "2025-12-27T10:28:59.072409+00:00",
        "meta_object_name": "FENGYUN 1C DEB",
        "meta_object_id": "1999-025APY",
        "meta_epoch": "2025-12-26T10:15:05.027328",
        "meta_mean_motion": 14.02568753,
        "meta_eccentricity": 0.0061413,
        "meta_inclination": 98.8238,
        "meta_ra_of_asc_node": 343.6134,
        "meta_arg_of_pericenter": 106.5932,
        "meta_mean_anomaly": 46.6052,
        "meta_ephemeris_type": 0,
        "meta_classification_type": "U",
        "meta_norad_cat_id": 30666,
        "meta_element_set_no": 999,
        "meta_rev_at_epoch": 96302,
        "meta_bstar": 0.00048176,
        "meta_mean_motion_dot": 7.12e-06,
        "meta_mean_motion_ddot": 0,
        "tle_line1": "1 30666U 99025APY 25360.42714152  .00000712  00000+0  48176-3 0  9996",
        "tle_line2": "2 30666  98.8238 343.6134 0061413 106.5932  46.6052 14.02568753963020"
      },
      "geometry": {
        "type": "Point",
        "coordinates": [
          159.6962088767655,
          -28.78262929708233
        ]
      }
    },
    {
      "type": "Feature",
      "properties": {
        "norad_id": 30668,
        "name": "FENGYUN 1C DEB",
        "group": "fengyun-1c-debris",
        "lat": -68.6324979369662,
        "lon": 99.03962604554273,
        "alt_km": 851.9262500102132,
        "timestamp": "2025-12-27T10:28:59.072419+00:00",
        "meta_object_name": "FENGYUN 1C DEB",
        "meta_object_id": "1999-025AQA",
        "meta_epoch": "2025-12-27T04:09:26.061984",
        "meta_mean_motion": 14.12419366,
        "meta_eccentricity": 0.008001,
        "meta_inclination": 99.13,
        "meta_ra_of_asc_node": 74.5015,
        "meta_arg_of_pericenter": 206.072,
        "meta_mean_anomaly": 182.9878,
        "meta_ephemeris_type": 0,
        "meta_classification_type": "U",
        "meta_norad_cat_id": 30668,
        "meta_element_set_no": 999,
        "meta_rev_at_epoch": 96259,
        "meta_bstar": 0.0018855,
        "meta_mean_motion_dot": 3.54e-05,
        "meta_mean_motion_ddot": 0,
        "tle_line1": "1 30668U 99025AQA 25361.17321831  .00003540  00000+0  18855-2 0  9991",
        "tle_line2": "2 30668  99.1300  74.5015 0080010 206.0720 182.9878 14.12419366962596"
      },
      "geometry": {
        "type": "Point",
        "coordinates": [
          99.03962604554273,
          -68.6324979369662
        ]
      }
    },
    {
      "type": "Feature",
      "properties": {
        "norad_id": 30669,
        "name": "FENGYUN 1C DEB",
        "group": "fengyun-1c-debris",
        "lat": -16.71146900452158,
        "lon": 114.73765369486847,
        "alt_km": 847.5366087858547,
        "timestamp": "2025-12-27T10:28:59.072429+00:00",
        "meta_object_name": "FENGYUN 1C DEB",
        "meta_object_id": "1999-025AQB",
        "meta_epoch": "2025-12-26T18:27:24.685344",
        "meta_mean_motion": 14.02782622,
        "meta_eccentricity": 0.01184409,
        "meta_inclination": 98.6367,
        "meta_ra_of_asc_node": 296.7195,
        "meta_arg_of_pericenter": 136.8531,
        "meta_mean_anomaly": 288.4244,
        "meta_ephemeris_type": 0,
        "meta_classification_type": "U",
        "meta_norad_cat_id": 30669,
        "meta_element_set_no": 999,
        "meta_rev_at_epoch": 95650,
        "meta_bstar": 0.0014668672,
        "meta_mean_motion_dot": 2.373e-05,
        "meta_mean_motion_ddot": 0,
        "tle_line1": "1 30669U 99025AQB 25360.76903571  .00002373  00000+0  14669-2 0  9995",
        "tle_line2": "2 30669  98.6367 296.7195 0118440 136.8531 288.4244 14.02782622956500"
      },
      "geometry": {
        "type": "Point",
        "coordinates": [
          114.73765369486847,
          -16.71146900452158
        ]
      }
    },
    {
      "type": "Feature",
      "properties": {
        "norad_id": 30670,
        "name": "FENGYUN 1C DEB",
        "group": "fengyun-1c-debris",
        "lat": 81.28392957129766,
        "lon": -45.6159169535657,
        "alt_km": 818.5957672830327,
        "timestamp": "2025-12-27T10:28:59.072439+00:00",
        "meta_object_name": "FENGYUN 1C DEB",
        "meta_object_id": "1999-025AQC",
        "meta_epoch": "2025-12-27T01:43:16.360032",
        "meta_mean_motion": 14.15823287,
        "meta_eccentricity": 0.0039358,
        "meta_inclination": 98.7089,
        "meta_ra_of_asc_node": 45.1773,
        "meta_arg_of_pericenter": 29.282,
        "meta_mean_anomaly": 0.7511,
        "meta_ephemeris_type": 0,
        "meta_classification_type": "U",
        "meta_norad_cat_id": 30670,
        "meta_element_set_no": 999,
        "meta_rev_at_epoch": 97355,
        "meta_bstar": 0.00010678,
        "meta_mean_motion_dot": 1.68e-06,
        "meta_mean_motion_ddot": 0,
        "tle_line1": "1 30670U 99025AQC 25361.07171713  .00000168  00000+0  10678-3 0  9994",
        "tle_line2": "2 30670  98.7089  45.1773 0039358  29.2820   0.7511 14.15823287973551"
      },
      "geometry": {
        "type": "Point",
        "coordinates": [
          -45.6159169535657,
          81.28392957129766
        ]
      }
    },
    {
      "type": "Feature",
      "properties": {
        "norad_id": 30671,
        "name": "FENGYUN 1C DEB",
        "group": "fengyun-1c-debris",
        "lat": 59.40380027155742,
        "lon": 50.20208849737873,
        "alt_km": 868.0533579451067,
        "timestamp": "2025-12-27T10:28:59.072449+00:00",
        "meta_object_name": "FENGYUN 1C DEB",
        "meta_object_id": "1999-025AQD",
        "meta_epoch": "2025-12-27T03:37:48.392256",
        "meta_mean_motion": 13.95510529,
        "meta_eccentricity": 0.0125648,
        "meta_inclination": 99.2516,
        "meta_ra_of_asc_node": 65.9159,
        "meta_arg_of_pericenter": 353.6879,
        "meta_mean_anomaly": 72.0115,
        "meta_ephemeris_type": 0,
        "meta_classification_type": "U",
        "meta_norad_cat_id": 30671,
        "meta_element_set_no": 999,
        "meta_rev_at_epoch": 95396,
        "meta_bstar": 0.0012581,
        "meta_mean_motion_dot": 1.78e-05,
        "meta_mean_motion_ddot": 0,
        "tle_line1": "1 30671U 99025AQD 25361.15125454  .00001780  00000+0  12581-2 0  9990",
        "tle_line2": "2 30671  99.2516  65.9159 0125648 353.6879  72.0115 13.95510529953961"
      },
      "geometry": {
        "type": "Point",
        "coordinates": [
          50.20208849737873,
          59.40380027155742
        ]
      }
    },
    {
      "type": "Feature",
      "properties": {
        "norad_id": 30673,
        "name": "FENGYUN 1C DEB",
        "group": "fengyun-1c-debris",
        "lat": -60.05209612229679,
        "lon": 66.12461257060872,
        "alt_km": 925.6990881589591,
        "timestamp": "2025-12-27T10:28:59.072459+00:00",
        "meta_object_name": "FENGYUN 1C DEB",
        "meta_object_id": "1999-025AQF",
        "meta_epoch": "2025-12-27T02:28:51.518784",
        "meta_mean_motion": 14.03458641,
        "meta_eccentricity": 0.0052763,
        "meta_inclination": 98.9173,
        "meta_ra_of_asc_node": 49.9841,
        "meta_arg_of_pericenter": 103.4081,
        "meta_mean_anomaly": 311.8658,
        "meta_ephemeris_type": 0,
        "meta_classification_type": "U",
        "meta_norad_cat_id": 30673,
        "meta_element_set_no": 999,
        "meta_rev_at_epoch": 96733,
        "meta_bstar": 0.00011625,
        "meta_mean_motion_dot": 1.41e-06,
        "meta_mean_motion_ddot": 0,
        "tle_line1": "1 30673U 99025AQF 25361.10337406  .00000141  00000+0  11625-3 0  9998",
        "tle_line2": "2 30673  98.9173  49.9841 0052763 103.4081 311.8658 14.03458641967339"
      },
      "geometry": {
        "type": "Point",
        "coordinates": [
          66.12461257060872,
          -60.05209612229679
        ]
      }
    }
  ]
}